KKS-1 (KISEKI)          
1 33499U 09002H   26164.88328157  .00001280  00000+0  16385-3 0  9996
2 33499  98.1192  87.2731 0006698 308.6582  51.4031 14.83116674935708
SWISSCUBE               
1 35932U 09051B   26164.67936614  .00000937  00000+0  19470-3 0  9990
2 35932  98.4039  72.5065 0005755 215.4372 144.6447 14.62475781888647
BEESAT-1                
1 35933U 09051C   26164.68697727  .00000783  00000+0  16700-3 0  9993
2 35933  98.3968  72.1570 0004054 230.6846 129.3995 14.61715545888676
ITUPSAT1                
1 35935U 09051E   26164.67480330  .00000706  00000+0  15577-3 0  9990
2 35935  98.4053  71.3404 0006156 247.1048 112.9502 14.60435999888227
XIWANG-1 (HOPE-1)       
1 36122U 09072B   26164.89991917  .00000082  00000+0  33125-3 0  9990
2 36122 100.4020 118.7842 0006838 239.6177 120.4261 13.16440267792574
O/OREOS (USA 219)       
1 37224U 10062C   26164.91462841  .00002343  00000+0  22675-3 0  9997
2 37224  71.9713  87.7520 0012457  70.2312 290.0201 14.93732295116154
JUGNU                   
1 37839U 11058B   26164.76137355  .00000404  00000+0  71673-4 0  9996
2 37839  19.9621 329.2415 0018600  38.5860 351.9026 14.13775870758549
SRMSAT                  
1 37841U 11058D   26164.49266569  .00000360  00000+0  51406-4 0  9992
2 37841  19.9718  81.8294 0011872 162.9750 353.0513 14.11574841757297
STRAND-1                
1 39090U 13009E   26164.78378247  .00000262  00000+0  10240-3 0  9998
2 39090  98.3921 345.1020 0007577 236.8114 123.2347 14.37161544696572
ZACUBE-1 (TSHEPISOSAT)  
1 39417U 13066B   26164.94118747  .00003518  00000+0  27465-3 0  9993
2 39417  97.8083 127.2606 0040455 259.0353 100.6319 15.01171980680243
GOMX-1                  
1 39430U 13066Q   26164.91747219  .00002271  00000+0  34412-3 0  9992
2 39430  97.6487   5.5875 0130204  87.9333 273.6778 14.69450187669438
CUBEBUG-2 (LO-74)       
1 39440U 13066AA  26164.84782956  .00004574  00000+0  42317-3 0  9993
2 39440  97.8902 113.8118 0058639  39.7873 320.7624 14.93736485676494
FUNCUBE-1 (AO-73)       
1 39444U 13066AE  26164.87461990  .00007372  00000+0  45803-3 0  9994
2 39444  97.8267 136.2511 0035377 212.6416 147.2626 15.09452478679163
UWE-3                   
1 39446U 13066AG  26164.80677422  .00004526  00000+0  38955-3 0  9996
2 39446  97.8688 120.8577 0048115 332.4032  27.4636 14.96999955677071
UNISAT-6                
1 40012U 14033C   26164.90602484  .00003245  00000+0  35060-3 0  9990
2 40012  97.7870 317.6758 0046343  79.8423 280.8016 14.88231131645672
DUCHIFAT-1              
1 40021U 14033M   26164.69523286  .00104898  00000+0  11045-2 0  9990
2 40021  98.0473 223.3664 0003522 119.5558 240.6051 15.63932661655200
QB50P1                  
1 40025U 14033R   26164.85471683  .00008675  00000+0  42732-3 0  9999
2 40025  98.0960 175.7668 0007543 228.5229 131.5356 15.18214076652523
LILACSAT-2              
1 40908U 15049K   26164.91824932  .00018509  00000+0  31613-3 0  9996
2 40908  97.4650 201.6354 0005334 260.5734  99.4915 15.51347791595242
FOX-1A (AO-85)          
1 40967U 15058D   26164.73051364  .00002516  00000+0  23134-3 0  9992
2 40967  64.7761 289.7255 0130285  57.8943 303.4737 14.90954961113057
CAS-2T & KS-1Q          
1 41847U 16066G   26164.77755632  .00001655  00000+0  23896-3 0  9991
2 41847  98.3821 240.5528 0342693 139.7889 222.9205 14.44684063504309
RADFXSAT (FOX-1B)       
1 43017U 17073E   26164.90059160  .00009197  00000+0  40162-3 0  9993
2 43017  97.4712  32.1832 0150068 340.6699  18.8875 15.12671807464899
DIWATA-2B               
1 43678U 18084H   26164.90215848  .00002859  00000+0  23215-3 0  9994
2 43678  98.1177   0.9684 0012294 180.7543 179.3663 15.00439222415728
ES'HAIL 2               
1 43700U 18090A   26164.91324308  .00000154  00000+0  00000+0 0  9999
2 43700   0.0122   8.3010 0001521 114.5239 133.9628  1.00268934 27641
FOX-1CLIFF (AO-95)      
1 43770U 18099N   26164.66941451  .00011615  00000+0  44518-3 0  9991
2 43770  97.4393 224.9284 0008355  10.7126 349.4289 15.26643407412685
ITASAT                  
1 43786U 18099AE  26164.66214323  .00006799  00000+0  32727-3 0  9995
2 43786  97.4034 216.2439 0012487  12.7704 347.3845 15.19017046412372
JY1SAT (JO-97)          
1 43803U 18099AX  26164.70285230  .00017139  00000+0  53016-3 0  9999
2 43803  97.4136 227.5247 0004188 279.4170  80.6599 15.33551647413094
UWE-4                   
1 43880U 18111E   26164.78477083  .00034468  00000+0  70749-3 0  9992
2 43880  97.5857  93.0195 0006131 357.5273   2.5945 15.45933781410259
TIANYAN 01              
1 44881U 19093C   26164.94836839  .00000867  00000+0  10385-3 0  9996
2 44881  97.7535 237.2592 0015043  96.7418 263.5511 14.86513612350931
RS-44 & BREEZE-KM R/B   
1 44909U 19096E   26164.87793428  .00000027  00000+0  56263-4 0  9992
2 44909  82.5218 341.9043 0218041 151.8826 209.4256 12.79748792301924
SALSAT                  
1 46495U 20068K   26164.94040297  .00008079  00000+0  28292-3 0  9997
2 46495  97.8844 167.8072 0008282 321.8659  38.1993 15.29757675314864
XW-3 (CAS-9)            
1 50466U 21131B   26164.93074547  .00000406  00000+0  13900-3 0  9992
2 50466  98.4980 257.3378 0005328 103.7712 256.4070 14.41354240234646
GREENCUBE (IO-117)      
1 53109U 22080E   26164.29338770 -.00000003  00000+0  00000+0 0  9990
2 53109  70.1444 299.5995 0008910 290.4576  69.5127  6.42583230 91811
UMKA 1 (RS40S)          
1 57172U 23091G   26164.93567142  .00006232  00000+0  28526-3 0  9991
2 57172  97.5056 223.6451 0014129 127.7687 232.4831 15.20783459163517
CUBESX-HSE 3 (RS42S)    
1 57178U 23091N   26164.90628303  .00013631  00000+0  45446-3 0  9992
2 57178  97.5101 230.4518 0012113 104.8105 255.4478 15.31139779163925
MONITOR-3 (RS58S)       
1 57180U 23091Q   26164.92355050  .00011570  00000+0  42788-3 0  9999
2 57180  97.5091 228.3453 0013102 110.8639 249.4004 15.27782396163795
MONITOR-4 (RS57S)       
1 57182U 23091S   26164.90278874  .00010228  00000+0  37766-3 0  9996
2 57182  97.5086 228.2956 0013125 111.2625 249.0017 15.27868427163793
MONITOR-2 (RS39S)       
1 57184U 23091U   26164.95285203  .00005092  00000+0  24696-3 0  9998
2 57184  97.5079 223.2565 0012649 120.9063 239.3417 15.18883791163462
SVYATOBOR 1 (RS60S)     
1 57187U 23091X   26164.91307126  .00009787  00000+0  37631-3 0  9994
2 57187  97.5096 228.7117 0010914 104.2397 256.0054 15.26564887163818
VIZARD-METEO (RS38S)    
1 57189U 23091Z   26164.95541302  .00017577  00000+0  50378-3 0  9995
2 57189  97.5100 234.3755 0008448  87.2132 273.0078 15.35932129164198
POLYTECH-UNIVERSE 3 (R*)
1 57191U 23091AB  26164.91461150  .00005631  00000+0  27079-3 0  9996
2 57191  97.5054 222.7229 0016696 137.2140 223.0397 15.19084267163455
UTMN 2 (RS27S)          
1 57203U 23091AP  26164.92566456  .00013733  00000+0  44645-3 0  9996
2 57203  97.5096 232.1012 0009422  93.5797 266.6522 15.31979211164046
KUZGTU 1 (RS47S)        
1 57217U 23091AV  26164.95989445  .00012673  00000+0  44058-3 0  9991
2 57217  97.5072 229.4068 0012375 107.9347 252.3243 15.29795850163882
SONATE-2                
1 59112U 24043Q   26164.92820975  .00038466  00000+0  50344-3 0  9997
2 59112  97.5521 315.1251 0006915 206.2507 153.8399 15.58494125127383
MESAT1                  
1 60209U 24125G   26164.84120969  .00058685  00000+0  64720-3 0  9992
2 60209  97.2294  22.2489 0009206 216.1475 143.9162 15.62868303109044
OOV-CUBE (TUBSAT-30)    
1 60240U 24128F   26164.52889216  .00002174  00000+0  17408-3 0  9995
2 60240  61.9948 238.3294 0045090 132.8997 227.5893 15.02760687105564
COLIBRI-S (RS67S)       
1 61746U 24199M   26164.89368029  .00022070  00000+0  42906-3 0  9997
2 61746  97.3001  38.7187 0006274 294.6495  65.4102 15.47600531136907
HORS 3 (RS81S)          
1 61753U 24199U   26164.93602485  .00038446  00000+0  57785-3 0  9992
2 61753  97.2987  40.7131 0003732 298.3147  61.7731 15.54766225137055
HORS 4 (RS82S)          
1 61754U 24199V   26164.90634764  .00050288  00000+0  63521-3 0  9998
2 61754  97.2935  41.8634 0002974 280.1050  79.9871 15.59403676137136
ARCTICSAT 1 (RS74S)     
1 61762U 24199AD  26164.91605087  .06613865  24633-5  93372-3 0  9997
2 61762  97.2748  49.1240 0010283 233.0518 126.9838 16.34840585137605
SIT-2086                
1 61764U 24199AF  26164.91031793  .00035974  00000+0  57908-3 0  9990
2 61764  97.2944  41.1750 0004349 268.2521  91.8234 15.52879346133920
HYPERVIEW 1G (RS66S)    
1 61772U 24199AP  26164.44200519  .00132494  00000+0  88637-3 0  9999
2 61772  97.2884  43.9750 0002868 238.7842 121.3142 15.74899790134088
ALTAIR (RS65S)          
1 61779U 24199AW  26164.92190217  .00011099  00000+0  30842-3 0  9994
2 61779  97.3037  34.2950 0011402 324.4234  35.6249 15.36974589136617
ASRTU-1 (AO-123)        
1 61781U 24199AY  26164.90694641  .00008102  00000+0  23558-3 0  9992
2 61781  97.3008  33.6080 0012579 327.1211  32.9249 15.35633458133428
SAMSAT-IONOSPHERE (RS7*)
1 61784U 24199BB  26164.91126009  .00045086  00000+0  61490-3 0  9993
2 61784  97.2955  40.7229 0005882 293.7217  66.3422 15.57363959137055
RTU MIREA 1 (RS51S)     
1 61785U 24199BC  26164.94287534  .00064065  00000+0  76663-3 0  9994
2 61785  97.2944  41.5704 0005415 285.5760  74.4899 15.60760992133961
TEVEL2-4                
1 63213U 25052D   26164.66098886  .00019485  00000+0  58447-3 0  9996
2 63213  97.3918  61.0474 0004795 110.7775 249.3982 15.34498104 69572
TEVEL2-5                
1 63214U 25052E   26164.94196306  .00018796  00000+0  56684-3 0  9999
2 63214  97.3915  61.2775 0004697 110.9114 249.2632 15.34336520 69615
TEVEL2-6                
1 63215U 25052F   26164.95421973  .00018841  00000+0  56882-3 0  9993
2 63215  97.3920  61.2743 0004632 110.9610 249.2129 15.34300916 69618
TEVEL2-1                
1 63217U 25052H   26164.98212629  .00018905  00000+0  58033-3 0  9995
2 63217  97.3890  60.9305 0004601 120.0167 240.1533 15.33772543 69607
